IRIDIUM 39              
1 25042U 97069D   26018.32543269  .00000601  00000+0  15118-3 0  9990
2 25042  86.3931 118.9433 0015915 311.8564  48.1282 14.49567925480125
IRIDIUM 38              
1 25043U 97069E   26018.57105925  .00000448  00000+0  14067-3 0  9992
2 25043  86.3999 142.6238 0003961 103.3755 256.7885 14.38356573476912
IRIDIUM 42              
1 25077U 97077A   26018.42498080  .00000320  00000+0  10214-3 0  9998
2 25077  86.4007 149.1197 0002711 105.5313 254.6183 14.36568126472092
IRIDIUM 44              
1 25078U 97077B   26018.56209129  .00000311  00000+0  91643-4 0  9994
2 25078  86.3991 130.4197 0003532  69.5176 290.6402 14.40466832474705
IRIDIUM 45              
1 25104U 97082A   26018.50164219  .00022516  00000+0  60337-3 0  9990
2 25104  86.3558 302.5291 0090421 238.1100 121.1331 15.33714329484907
IRIDIUM 24              
1 25105U 97082B   26018.39376818  .00000462  00000+0  13357-3 0  9994
2 25105  86.3929 348.9983 0013563  87.0016 273.2737 14.42369661474239
IRIDIUM 51              
1 25262U 98018A   26018.25281045  .00147240  00000+0  10760-2 0  9990
2 25262  86.3725 307.3737 0047318 123.5406 237.0398 15.71247164480365
IRIDIUM 57              
1 25273U 98019B   26018.63219317  .00000297  00000+0  95193-4 0  9993
2 25273  86.3921  54.9084 0002343  91.8409 268.3056 14.36080472455709
